[{"OBJECT_NAME":"STARLINK-36106","OBJECT_ID":"2025-293R","EPOCH":"2026-03-09T12:10:20.378784","MEAN_MOTION":14.98345506,"ECCENTRICITY":0.00032636,"INCLINATION":70.0003,"RA_OF_ASC_NODE":94.7881,"ARG_OF_PERICENTER":267.91,"MEAN_ANOMALY":92.1685,"EPHEMERIS_TYPE":0,"CLASSIFICATION_TYPE":"U","NORAD_CAT_ID":67018,"ELEMENT_SET_NO":999,"REV_AT_EPOCH":1486,"BSTAR":0.00032957654,"MEAN_MOTION_DOT":3.843e-5,"MEAN_MOTION_DDOT":0},{"OBJECT_NAME":"DMSP 5D-2 F13 DEB","OBJECT_ID":"1995-015CP","EPOCH":"2026-03-07T12:11:36.379680","MEAN_MOTION":14.97633156,"ECCENTRICITY":0.00060588,"INCLINATION":98.7878,"RA_OF_ASC_NODE":156.2683,"ARG_OF_PERICENTER":182.3212,"MEAN_ANOMALY":177.798,"EPHEMERIS_TYPE":0,"CLASSIFICATION_TYPE":"U","NORAD_CAT_ID":40500,"ELEMENT_SET_NO":999,"REV_AT_EPOCH":57139,"BSTAR":0.013984163,"MEAN_MOTION_DOT":0.00167441,"MEAN_MOTION_DDOT":0}]
